[{"OBJECT_NAME":"STARLINK-2238","OBJECT_ID":"2021-041AH","EPOCH":"2026-03-10T00:00:02.999808","MEAN_MOTION":15.1912254,"ECCENTRICITY":8.931e-5,"INCLINATION":53.0542,"RA_OF_ASC_NODE":139.7754,"ARG_OF_PERICENTER":85.2454,"MEAN_ANOMALY":136.455,"EPHEMERIS_TYPE":0,"CLASSIFICATION_TYPE":"U","NORAD_CAT_ID":48584,"ELEMENT_SET_NO":999,"REV_AT_EPOCH":579,"BSTAR":0.0035639971,"MEAN_MOTION_DOT":0.00076253,"MEAN_MOTION_DDOT":0},{"OBJECT_NAME":"YAOGAN-36 04A","OBJECT_ID":"2022-171A","EPOCH":"2026-03-09T13:33:55.536768","MEAN_MOTION":15.19645021,"ECCENTRICITY":0.0007143,"INCLINATION":34.9894,"RA_OF_ASC_NODE":125.487,"ARG_OF_PERICENTER":123.655,"MEAN_ANOMALY":236.4846,"EPHEMERIS_TYPE":0,"CLASSIFICATION_TYPE":"U","NORAD_CAT_ID":54746,"ELEMENT_SET_NO":999,"REV_AT_EPOCH":17995,"BSTAR":0.00040159,"MEAN_MOTION_DOT":8.745e-5,"MEAN_MOTION_DDOT":0}]
